{"type": "FeatureCollection", "features": [ {"type": "Feature", "properties": {"norad_id": 37834, "name": "INTELSAT 18 (IS-18)", "group": "intelsat", "lat": 0.006860972194994892, "lon": 132.5257025249261, "alt_km": 35793.571577665185, "timestamp": "2025-12-26T14:28:47.356971+00:00", "meta": {"OBJECT_NAME": "INTELSAT 18 (IS-18)", "OBJECT_ID": "2011-056A", "EPOCH": "2025-12-26T03:40:38.798112", "MEAN_MOTION": 1.00271849, "ECCENTRICITY": 0.00019264, "INCLINATION": 0.0171, "RA_OF_ASC_NODE": 297.462, "ARG_OF_PERICENTER": 352.9016, "MEAN_ANOMALY": 39.6981, "EPHEMERIS_TYPE": 0, "CLASSIFICATION_TYPE": "U", "NORAD_CAT_ID": 37834, "ELEMENT_SET_NO": 999, "REV_AT_EPOCH": 5207, "BSTAR": 0, "MEAN_MOTION_DOT": 7.5e-07, "MEAN_MOTION_DDOT": 0}, "tle": {"line1": "1 37834U 11056A   25360.15322683  .00000075  00000+0  00000+0 0  9994", "line2": "2 37834   0.0171 297.4620 0001926 352.9016  39.6981  1.00271849 52072"}}, "geometry": {"type": "Point", "coordinates": [132.5257025249261, 0.006860972194994892]}}, {"type": "Feature", "properties": {"norad_id": 38098, "name": "INTELSAT 22 (IS-22)", "group": "intelsat", "lat": -0.012452973110666692, "lon": 24.64218094066995, "alt_km": 35785.76349751416, "timestamp": "2025-12-26T14:28:47.356983+00:00", "meta": {"OBJECT_NAME": "INTELSAT 22 (IS-22)", "OBJECT_ID": "2012-011A", "EPOCH": "2025-12-26T02:10:38.891424", "MEAN_MOTION": 1.00270604, "ECCENTRICITY": 0.00019545, "INCLINATION": 0.032, "RA_OF_ASC_NODE": 51.6122, "ARG_OF_PERICENTER": 247.6605, "MEAN_ANOMALY": 260.3158, "EPHEMERIS_TYPE": 0, "CLASSIFICATION_TYPE": "U", "NORAD_CAT_ID": 38098, "ELEMENT_SET_NO": 999, "REV_AT_EPOCH": 545, "BSTAR": 0, "MEAN_MOTION_DOT": 0, "MEAN_MOTION_DDOT": 0}, "tle": {"line1": "1 38098U 12011A   25360.09072791  .00000000  00000+0  00000+0 0  9992", "line2": "2 38098   0.0320  51.6122 0001954 247.6605 260.3158  1.00270604  5450"}}, "geometry": {"type": "Point", "coordinates": [24.64218094066995, -0.012452973110666692]}}, {"type": "Feature", "properties": {"norad_id": 38356, "name": "INTELSAT 19 (IS-19)", "group": "intelsat", "lat": 0.020974028825271027, "lon": 118.52982360185351, "alt_km": 35797.37709004072, "timestamp": "2025-12-26T14:28:47.356995+00:00", "meta": {"OBJECT_NAME": "INTELSAT 19 (IS-19)", "OBJECT_ID": "2012-030A", "EPOCH": "2025-12-26T05:07:38.649792", "MEAN_MOTION": 1.00271976, "ECCENTRICITY": 0.00029977, "INCLINATION": 0.0097, "RA_OF_ASC_NODE": 339.6824, "ARG_OF_PERICENTER": 292.3285, "MEAN_ANOMALY": 65.8708, "EPHEMERIS_TYPE": 0, "CLASSIFICATION_TYPE": "U", "NORAD_CAT_ID": 38356, "ELEMENT_SET_NO": 999, "REV_AT_EPOCH": 4871, "BSTAR": 0, "MEAN_MOTION_DOT": -3.4e-07, "MEAN_MOTION_DDOT": 0}, "tle": {"line1": "1 38356U 12030A   25360.21364178 -.00000034  00000+0  00000+0 0  9995", "line2": "2 38356   0.0097 339.6824 0002997 292.3285  65.8708  1.00271976 48713"}}, "geometry": {"type": "Point", "coordinates": [118.52982360185351, 0.020974028825271027]}}, {"type": "Feature", "properties": {"norad_id": 38740, "name": "INTELSAT 20 (IS-20)", "group": "intelsat", "lat": -0.008330221215581938, "lon": 21.05048426412799, "alt_km": 35792.498213121704, "timestamp": "2025-12-26T14:28:47.357007+00:00", "meta": {"OBJECT_NAME": "INTELSAT 20 (IS-20)", "OBJECT_ID": "2012-043A", "EPOCH": "2025-12-26T02:10:38.891424", "MEAN_MOTION": 1.00277669, "ECCENTRICITY": 0.00019573, "INCLINATION": 0.0128, "RA_OF_ASC_NODE": 61.9497, "ARG_OF_PERICENTER": 128.5096, "MEAN_ANOMALY": 5.5509, "EPHEMERIS_TYPE": 0, "CLASSIFICATION_TYPE": "U", "NORAD_CAT_ID": 38740, "ELEMENT_SET_NO": 999, "REV_AT_EPOCH": 4901, "BSTAR": 0, "MEAN_MOTION_DOT": -4e-08, "MEAN_MOTION_DDOT": 0}, "tle": {"line1": "1 38740U 12043A   25360.09072791 -.00000004  00000+0  00000+0 0  9996", "line2": "2 38740   0.0128  61.9497 0001957 128.5096   5.5509  1.00277669 49010"}}, "geometry": {"type": "Point", "coordinates": [21.05048426412799, -0.008330221215581938]}}, {"type": "Feature", "properties": {"norad_id": 38749, "name": "INTELSAT 21 (IS-21)", "group": "intelsat", "lat": -0.033537492441316756, "lon": -105.45195377874421, "alt_km": 35778.86132734246, "timestamp": "2025-12-26T14:28:47.357019+00:00", "meta": {"OBJECT_NAME": "INTELSAT 21 (IS-21)", "OBJECT_ID": "2012-045A", "EPOCH": "2025-12-26T05:54:07.054272", "MEAN_MOTION": 1.00271929, "ECCENTRICITY": 0.00017513, "INCLINATION": 0.0183, "RA_OF_ASC_NODE": 334.425, "ARG_OF_PERICENTER": 292.8678, "MEAN_ANOMALY": 218.2466, "EPHEMERIS_TYPE": 0, "CLASSIFICATION_TYPE": "U", "NORAD_CAT_ID": 38749, "ELEMENT_SET_NO": 999, "REV_AT_EPOCH": 4879, "BSTAR": 0, "MEAN_MOTION_DOT": -2.63e-06, "MEAN_MOTION_DDOT": 0}, "tle": {"line1": "1 38749U 12045A   25360.24591498 -.00000263  00000+0  00000+0 0  9991", "line2": "2 38749   0.0183 334.4250 0001751 292.8678 218.2466  1.00271929 48790"}}, "geometry": {"type": "Point", "coordinates": [-105.45195377874421, -0.033537492441316756]}}, {"type": "Feature", "properties": {"norad_id": 38867, "name": "INTELSAT 23 (IS-23)", "group": "intelsat", "lat": -0.012842247125028662, "lon": -100.45732327141664, "alt_km": 35783.90788891937, "timestamp": "2025-12-26T14:28:47.357031+00:00", "meta": {"OBJECT_NAME": "INTELSAT 23 (IS-23)", "OBJECT_ID": "2012-057A", "EPOCH": "2025-12-26T05:55:59.375136", "MEAN_MOTION": 1.00273273, "ECCENTRICITY": 6.079e-05, "INCLINATION": 0.0176, "RA_OF_ASC_NODE": 77.9722, "ARG_OF_PERICENTER": 227.1538, "MEAN_ANOMALY": 185.876, "EPHEMERIS_TYPE": 0, "CLASSIFICATION_TYPE": "U", "NORAD_CAT_ID": 38867, "ELEMENT_SET_NO": 999, "REV_AT_EPOCH": 4822, "BSTAR": 0, "MEAN_MOTION_DOT": -2.63e-06, "MEAN_MOTION_DDOT": 0}, "tle": {"line1": "1 38867U 12057A   25360.24721499 -.00000263  00000+0  00000+0 0  9991", "line2": "2 38867   0.0176  77.9722 0000607 227.1538 185.8760  1.00273273 48229"}}, "geometry": {"type": "Point", "coordinates": [-100.45732327141664, -0.012842247125028662]}}, {"type": "Feature", "properties": {"norad_id": 39360, "name": "FM-6", "group": "intelsat", "lat": 0.01598746216350571, "lon": -163.64044829119044, "alt_km": 35774.60220441266, "timestamp": "2025-12-26T14:28:47.357043+00:00", "meta": {"OBJECT_NAME": "FM-6", "OBJECT_ID": "2013-058A", "EPOCH": "2025-12-25T23:15:38.712384", "MEAN_MOTION": 1.00267622, "ECCENTRICITY": 0.00031338, "INCLINATION": 0.0194, "RA_OF_ASC_NODE": 74.6696, "ARG_OF_PERICENTER": 105.3027, "MEAN_ANOMALY": 147.4825, "EPHEMERIS_TYPE": 0, "CLASSIFICATION_TYPE": "U", "NORAD_CAT_ID": 39360, "ELEMENT_SET_NO": 999, "REV_AT_EPOCH": 4433, "BSTAR": 0, "MEAN_MOTION_DOT": 5e-08, "MEAN_MOTION_DDOT": 0}, "tle": {"line1": "1 39360U 13058A   25359.96919806  .00000005  00000+0  00000+0 0  9993", "line2": "2 39360   0.0194  74.6696 0003133 105.3027 147.4825  1.00267622 44334"}}, "geometry": {"type": "Point", "coordinates": [-163.64044829119044, 0.01598746216350571]}}, {"type": "Feature", "properties": {"norad_id": 40271, "name": "INTELSAT 30 (IS-30)", "group": "intelsat", "lat": -0.00717465114298885, "lon": -142.51207654280591, "alt_km": 35790.43491811026, "timestamp": "2025-12-26T14:28:47.357055+00:00", "meta": {"OBJECT_NAME": "INTELSAT 30 (IS-30)", "OBJECT_ID": "2014-062A", "EPOCH": "2025-12-25T03:32:01.529088", "MEAN_MOTION": 1.00271148, "ECCENTRICITY": 0.00014468, "INCLINATION": 0.0153, "RA_OF_ASC_NODE": 34.2697, "ARG_OF_PERICENTER": 50.7902, "MEAN_ANOMALY": 326.8001, "EPHEMERIS_TYPE": 0, "CLASSIFICATION_TYPE": "U", "NORAD_CAT_ID": 40271, "ELEMENT_SET_NO": 999, "REV_AT_EPOCH": 504, "BSTAR": 0, "MEAN_MOTION_DOT": -1.3e-06, "MEAN_MOTION_DDOT": 0}, "tle": {"line1": "1 40271U 14062A   25359.14723992 -.00000130  00000+0  00000+0 0  9991", "line2": "2 40271   0.0153  34.2697 0001446  50.7902 326.8001  1.00271148  5047"}}, "geometry": {"type": "Point", "coordinates": [-142.51207654280591, -0.00717465114298885]}}, {"type": "Feature", "properties": {"norad_id": 40333, "name": "DIRECTV 14", "group": "intelsat", "lat": -0.022602309410446247, "lon": -146.6154866259224, "alt_km": 35782.35874274759, "timestamp": "2025-12-26T14:28:47.357066+00:00", "meta": {"OBJECT_NAME": "DIRECTV 14", "OBJECT_ID": "2014-078B", "EPOCH": "2025-12-24T12:37:43.773312", "MEAN_MOTION": 1.00279829, "ECCENTRICITY": 3.885e-05, "INCLINATION": 0.0184, "RA_OF_ASC_NODE": 340.4706, "ARG_OF_PERICENTER": 254.7884, "MEAN_ANOMALY": 308.2619, "EPHEMERIS_TYPE": 0, "CLASSIFICATION_TYPE": "U", "NORAD_CAT_ID": 40333, "ELEMENT_SET_NO": 999, "REV_AT_EPOCH": 4029, "BSTAR": 0, "MEAN_MOTION_DOT": -1.06e-06, "MEAN_MOTION_DDOT": 0}, "tle": {"line1": "1 40333U 14078B   25358.52620108 -.00000106  00000+0  00000+0 0  9996", "line2": "2 40333   0.0184 340.4706 0000388 254.7884 308.2619  1.00279829 40291"}}, "geometry": {"type": "Point", "coordinates": [-146.6154866259224, -0.022602309410446247]}}, {"type": "Feature", "properties": {"norad_id": 40663, "name": "DIRECTV 15", "group": "intelsat", "lat": -0.005858791164475612, "lon": -150.37175658896825, "alt_km": 35786.08539835731, "timestamp": "2025-12-26T14:28:47.357079+00:00", "meta": {"OBJECT_NAME": "DIRECTV 15", "OBJECT_ID": "2015-026A", "EPOCH": "2025-12-25T16:00:02.811744", "MEAN_MOTION": 1.00267803, "ECCENTRICITY": 3.367e-05, "INCLINATION": 0.018, "RA_OF_ASC_NODE": 26.1792, "ARG_OF_PERICENTER": 146.2748, "MEAN_ANOMALY": 59.0835, "EPHEMERIS_TYPE": 0, "CLASSIFICATION_TYPE": "U", "NORAD_CAT_ID": 40663, "ELEMENT_SET_NO": 999, "REV_AT_EPOCH": 3872, "BSTAR": 0, "MEAN_MOTION_DOT": -8e-07, "MEAN_MOTION_DDOT": 0}, "tle": {"line1": "1 40663U 15026A   25359.66669921 -.00000080  00000+0  00000+0 0  9999", "line2": "2 40663   0.0180  26.1792 0000336 146.2748  59.0835  1.00267803 38728"}}, "geometry": {"type": "Point", "coordinates": [-150.37175658896825, -0.005858791164475612]}}]}